ORBCOMM FM37 [-]        
1 33064U 08031E   24018.90239323  .00002722  00000+0  42309-3 0  9997
2 33064  48.4402 265.3586 0005911 328.2178 121.8157 14.75746201837844
ORBCOMM FM40 [-]        
1 33065U 08031F   24018.79661987  .00003188  00000+0  47723-3 0  9992
2 33065  48.4416 256.2595 0006945 336.0564 143.1514 14.76922566837859
VESSELSAT 1 [-]         
1 37840U 11058C   24018.92721455  .00000474  00000+0  11424-3 0  9996
2 37840  19.9638 331.0982 0013582 279.7139  80.1731 14.11104459633432
ORBCOMM FM109 [+]       
1 40086U 14040A   24018.10636414  .00001649  00000+0  40646-3 0  9999
2 40086  47.0044 289.9524 0001399  92.8872 267.2173 14.56269889505798
ORBCOMM FM107 [+]       
1 40087U 14040B   24018.14055545  .00001661  00000+0  40920-3 0  9993
2 40087  47.0060 290.7395 0001266  37.7584 322.3390 14.56264587505877
ORBCOMM FM106 [-]       
1 40088U 14040C   24018.45537414  .00002671  00000+0  50904-3 0  9993
2 40088  47.0590 150.6803 0018693 197.2644 162.7612 14.66477370507709
ORBCOMM FM111 [-]       
1 40089U 14040D   24018.51829695  .00003850  00000+0  51498-3 0  9995
2 40089  47.0054  64.5728 0034529 254.6025 105.1053 14.80832721513664
ORBCOMM FM104 [-]       
1 40090U 14040E   24018.89137701  .00001482  00000+0  38054-3 0  9990
2 40090  47.0068 314.8903 0017355  10.4502 349.6740 14.54790690505548
